COMMENT,ORIGINATOR,NORAD_CAT_ID,OBJECT_NAME,OBJECT_TYPE,CLASSIFICATION_TYPE,INTLDES,EPOCH,EPOCH_MICROSECONDS,MEAN_MOTION,ECCENTRICITY,INCLINATION,RA_OF_ASC_NODE,ARG_OF_PERICENTER,MEAN_ANOMALY,EPHEMERIS_TYPE,ELEMENT_SET_NO,REV_AT_EPOCH,BSTAR,MEAN_MOTION_DOT,MEAN_MOTION_DDOT,FILE,TLE_LINE0,TLE_LINE1,TLE_LINE2,OBJECT_ID,OBJECT_NUMBER,SEMIMAJOR_AXIS,PERIOD,APOGEE,PERIGEE,DECAYED,date
GENERATED VIA SPACETRACK.ORG API,18 SPCS,48904,SPACEBEE-111,PAYLOAD,U,21059AB,2023/3/23 20:01,985024,15.27494412,0.0009348,97.5862,219.0927,209.8215,150.2492,0,999,9640,0.0021442,0.0005806,0,3868629,0 SPACEBEE-111,1 48904U 21059AB  23082.83458316  .00058060  00000-0  21442-2 0  9999,2 48904  97.5862 219.0927 0009348 209.8215 150.2492 15.27494412 96406,2021-059AB,48904,6861.442,94.272,489.721,476.893,0,
GENERATED VIA SPACETRACK.ORG API,18 SPCS,48904,SPACEBEE-111,PAYLOAD,U,21059AB,2023/3/23 21:36,953120,15.27501128,0.0009339,97.5863,219.1594,209.4978,150.5735,0,999,9641,0.0021573,0.0005843,0,3868816,0 SPACEBEE-111,1 48904U 21059AB  23082.90009205  .00058430  00000-0  21573-2 0  9992,2 48904  97.5863 219.1594 0009339 209.4978 150.5735 15.27501128 96417,2021-059AB,48904,6861.422,94.272,489.695,476.879,0,
GENERATED VIA SPACETRACK.ORG API,18 SPCS,48904,SPACEBEE-111,PAYLOAD,U,21059AB,2023/3/24 7:02,715392,15.27613919,0.0009303,97.5863,219.5591,208.1101,151.9636,0,999,9647,0.0051419,0.00141396,0,3869250,0 SPACEBEE-111,1 48904U 21059AB  23083.29313328  .00141396  00000-0  51419-2 0  9995,2 48904  97.5863 219.5591 0009303 208.1101 151.9636 15.27613919 96476,2021-059AB,48904,6861.085,94.265,489.332,476.567,0,
GENERATED VIA SPACETRACK.ORG API,18 SPCS,48904,SPACEBEE-111,PAYLOAD,U,21059AB,2023/3/24 8:36,617824,15.27607461,0.0009319,97.5861,219.6255,208.0702,152.0035,0,999,9648,0.0066242,0.00183158,0,3869846,0 SPACEBEE-111,1 48904U 21059AB  23083.35864141  .00183158  00000-0  66242-2 0  9998,2 48904  97.5861 219.6255 0009319 208.0702 152.0035 15.27607461 96486,2021-059AB,48904,6861.104,94.265,489.363,476.575,0,
GENERATED VIA SPACETRACK.ORG API,18 SPCS,48904,SPACEBEE-111,PAYLOAD,U,21059AB,2023/3/24 21:11,924736,15.27628547,0.0009346,97.5863,220.1589,206.6618,153.4141,0,999,9656,0.0016271,0.00044137,0,3869956,0 SPACEBEE-111,1 48904U 21059AB  23083.88267274  .00044137  00000-0  16271-2 0  9990,2 48904  97.5863 220.1589 0009346 206.6618 153.4141 15.27628547 96565,2021-059AB,48904,6861.041,94.264,489.318,476.493,0,
GENERATED VIA SPACETRACK.ORG API,18 SPCS,48904,SPACEBEE-111,PAYLOAD,U,21059AB,2023/3/24 21:11,924736,15.27628547,0.0009346,97.5863,220.1589,206.6618,153.4141,0,999,9656,0.0016271,0.00044137,0,3870109,0 SPACEBEE-111,1 48904U 21059AB  23083.88267274  .00044137  00000-0  16271-2 0  9990,2 48904  97.5863 220.1589 0009346 206.6618 153.4141 15.27628547 96565,2021-059AB,48904,6861.041,94.264,489.318,476.493,0,
GENERATED VIA SPACETRACK.ORG API,18 SPCS,48904,SPACEBEE-111,PAYLOAD,U,21059AB,2023/3/25 22:20,193504,15.27727919,0.0009265,97.5865,221.2247,203.6555,156.4259,0,999,9672,0.0017532,0.00047729,0,3871104,0 SPACEBEE-111,1 48904U 21059AB  23084.93068511  .00047729  00000-0  17532-2 0  9991,2 48904  97.5865 221.2247 0009265 203.6555 156.4259 15.27727919 96721,2021-059AB,48904,6860.743,94.258,488.965,476.252,0,
GENERATED VIA SPACETRACK.ORG API,18 SPCS,48904,SPACEBEE-111,PAYLOAD,U,21059AB,2023/3/26 4:37,362784,15.27749835,0.0009319,97.5864,221.4911,202.5113,157.5718,0,999,9676,0.0016246,0.00044232,0,3871255,0 SPACEBEE-111,1 48904U 21059AB  23085.19267781  .00044232  00000-0  16246-2 0  9997,2 48904  97.5864 221.4911 0009319 202.5113 157.5718 15.27749835 96765,2021-059AB,48904,6860.678,94.256,488.936,476.149,0,
GENERATED VIA SPACETRACK.ORG API,18 SPCS,48904,SPACEBEE-111,PAYLOAD,U,21059AB,2023/3/26 21:54,244160,15.27807776,0.0009343,97.5864,222.2243,199.8562,160.2314,0,999,9687,0.0014619,0.00039842,0,3871964,0 SPACEBEE-111,1 48904U 21059AB  23085.91313940  .00039842  00000-0  14619-2 0  9999,2 48904  97.5864 222.2243 0009343 199.8562 160.2314 15.27807776 96879,2021-059AB,48904,6860.504,94.253,488.779,475.959,0,
GENERATED VIA SPACETRACK.ORG API,18 SPCS,48904,SPACEBEE-111,PAYLOAD,U,21059AB,2023/3/27 8:55,214080,15.2784869,0.0009309,97.5863,222.6909,198.1919,161.8988,0,999,9694,0.001546,0.00042204,0,3872409,0 SPACEBEE-111,1 48904U 21059AB  23086.37159970  .00042204  00000-0  15460-2 0  9992,2 48904  97.5863 222.6909 0009309 198.1919 161.8988 15.27848690 96943,2021-059AB,48904,6860.382,94.25,488.633,475.86,0,
GENERATED VIA SPACETRACK.ORG API,18 SPCS,48904,SPACEBEE-111,PAYLOAD,U,21059AB,2023/3/27 8:55,214080,15.2784869,0.0009309,97.5863,222.6909,198.1919,161.8988,0,999,9694,0.001546,0.00042204,0,3872569,0 SPACEBEE-111,1 48904U 21059AB  23086.37159970  .00042204  00000-0  15460-2 0  9992,2 48904  97.5863 222.6909 0009309 198.1919 161.8988 15.27848690 96943,2021-059AB,48904,6860.382,94.25,488.633,475.86,0,
GENERATED VIA SPACETRACK.ORG API,18 SPCS,48904,SPACEBEE-111,PAYLOAD,U,21059AB,2023/3/27 21:29,684512,15.27891252,0.0009321,97.5863,223.2241,196.4843,163.6094,0,999,9702,0.00144,0.00039341,0,3872915,0 SPACEBEE-111,1 48904U 21059AB  23086.89554033  .00039341  00000-0  14400-2 0  9999,2 48904  97.5863 223.2241 0009321 196.4843 163.6094 15.27891252 97020,2021-059AB,48904,6860.254,94.248,488.514,475.725,0,
GENERATED VIA SPACETRACK.ORG API,18 SPCS,48904,SPACEBEE-111,PAYLOAD,U,21059AB,2023/3/28 8:29,489248,15.27932648,0.0009271,97.5861,223.6909,195.2133,164.8828,0,999,9709,0.0015677,0.0004291,0,3873565,0 SPACEBEE-111,1 48904U 21059AB  23087.35397557  .00042910  00000-0  15677-2 0  9990,2 48904  97.5861 223.6909 0009271 195.2133 164.8828 15.27932648 97096,2021-059AB,48904,6860.13,94.245,488.355,475.635,0,
GENERATED VIA SPACETRACK.ORG API,18 SPCS,48904,SPACEBEE-111,PAYLOAD,U,21059AB,2023/3/28 21:04,372864,15.27982427,0.0009273,97.5859,224.2242,193.886,166.2126,0,999,9717,0.0016725,0.00045871,0,3873921,0 SPACEBEE-111,1 48904U 21059AB  23087.87788626  .00045871  00000-0  16725-2 0  9992,2 48904  97.5859 224.2242 0009273 193.8860 166.2126 15.27982427 97179,2021-059AB,48904,6859.981,94.242,488.208,475.485,0,
GENERATED VIA SPACETRACK.ORG API,18 SPCS,48904,SPACEBEE-111,PAYLOAD,U,21059AB,2023/3/28 22:38,508416,15.27989036,0.0009179,97.5856,224.2906,194.0068,166.0918,0,999,9718,0.0017042,0.00046756,0,3873728,0 SPACEBEE-111,1 48904U 21059AB  23087.94337394  .00046756  00000-0  17042-2 0  9998,2 48904  97.5856 224.2906 0009179 194.0068 166.0918 15.27989036 97182,2021-059AB,48904,6859.962,94.242,488.123,475.53,0,
GENERATED VIA SPACETRACK.ORG API,18 SPCS,48904,SPACEBEE-111,PAYLOAD,U,21059AB,2023/3/29 8:04,848256,15.28025469,0.0009302,97.5857,224.6907,192.3524,167.7489,0,999,9724,0.0017356,0.00047679,0,3874492,0 SPACEBEE-111,1 48904U 21059AB  23088.33629454  .00047679  00000-0  17356-2 0  9996,2 48904  97.5857 224.6907 0009302 192.3524 167.7489 15.28025469 97244,2021-059AB,48904,6859.853,94.239,488.099,475.336,0,
GENERATED VIA SPACETRACK.ORG API,18 SPCS,48904,SPACEBEE-111,PAYLOAD,U,21059AB,2023/3/29 20:38,981760,15.28077326,0.0009265,97.5858,225.224,190.6243,169.4801,0,999,9732,0.0017762,0.0004888,0,3874790,0 SPACEBEE-111,1 48904U 21059AB  23088.86017340  .00048880  00000-0  17762-2 0  9995,2 48904  97.5858 225.2240 0009265 190.6243 169.4801 15.28077326 97324,2021-059AB,48904,6859.697,94.236,487.918,475.207,0,
GENERATED VIA SPACETRACK.ORG API,18 SPCS,48904,SPACEBEE-111,PAYLOAD,U,21059AB,2023/3/30 7:38,936864,15.28123961,0.0009243,97.5857,225.6907,189.0089,171.0986,0,999,9739,0.0018353,0.00050592,0,3875250,0 SPACEBEE-111,1 48904U 21059AB  23089.31855251  .00050592  00000-0  18353-2 0  9997,2 48904  97.5857 225.6907 0009243 189.0089 171.0986 15.28123961 97390,2021-059AB,48904,6859.558,94.233,487.763,475.082,0,
GENERATED VIA SPACETRACK.ORG API,18 SPCS,48904,SPACEBEE-111,PAYLOAD,U,21059AB,2023/3/30 7:38,936864,15.28123961,0.0009243,97.5857,225.6907,189.0089,171.0986,0,999,9739,0.0018353,0.00050592,0,3875726,0 SPACEBEE-111,1 48904U 21059AB  23089.31855251  .00050592  00000-0  18353-2 0  9997,2 48904  97.5857 225.6907 0009243 189.0089 171.0986 15.28123961 97390,2021-059AB,48904,6859.558,94.233,487.763,475.082,0,
GENERATED VIA SPACETRACK.ORG API,18 SPCS,48904,SPACEBEE-111,PAYLOAD,U,21059AB,2023/3/31 8:47,672384,15.28236223,0.0009201,97.5857,226.7576,185.1929,174.9217,0,999,9755,0.0020049,0.00055499,0,3876213,0 SPACEBEE-111,1 48904U 21059AB  23090.36622306  .00055499  00000-0  20049-2 0  9993,2 48904  97.5857 226.7576 0009201 185.1929 174.9217 15.28236223 97551,2021-059AB,48904,6859.222,94.226,487.398,474.776,0,
GENERATED VIA SPACETRACK.ORG API,18 SPCS,48904,SPACEBEE-111,PAYLOAD,U,21059AB,2023/3/31 19:47,567552,15.28279193,0.0009191,97.5858,227.2245,183.7133,176.404,0,999,9762,0.0017225,0.00047684,0,3876758,0 SPACEBEE-111,1 48904U 21059AB  23090.82455518  .00047684  00000-0  17225-2 0  9992,2 48904  97.5858 227.2245 0009191 183.7133 176.4040 15.28279193 97622,2021-059AB,48904,6859.093,94.224,487.262,474.654,0,
GENERATED VIA SPACETRACK.ORG API,18 SPCS,48904,SPACEBEE-111,PAYLOAD,U,21059AB,2023/4/1 14:38,545056,15.28349019,0.0009172,97.5859,228.0247,181.4055,178.716,0,999,9774,0.0015968,0.00044273,0,3877270,0 SPACEBEE-111,1 48904U 21059AB  23091.61023779  .00044273  00000-0  15968-2 0  9993,2 48904  97.5859 228.0247 0009172 181.4055 178.7160 15.28349019 97747,2021-059AB,48904,6858.884,94.219,487.04,474.458,0,
GENERATED VIA SPACETRACK.ORG API,18 SPCS,48904,SPACEBEE-111,PAYLOAD,U,21059AB,2023/4/1 20:55,500640,15.28375074,0.0009164,97.586,228.2914,180.604,179.5189,0,999,9778,0.0016596,0.00046064,0,3877655,0 SPACEBEE-111,1 48904U 21059AB  23091.87212385  .00046064  00000-0  16596-2 0  9992,2 48904  97.5860 228.2914 0009164 180.6040 179.5189 15.28375074 97782,2021-059AB,48904,6858.806,94.218,486.957,474.386,0,
